[{"OBJECT_NAME":"STARLINK-3780","OBJECT_ID":"2022-041T","EPOCH":"2026-03-24T21:40:18.192576","MEAN_MOTION":15.08834393,"ECCENTRICITY":0.00013184,"INCLINATION":53.218,"RA_OF_ASC_NODE":40.8241,"ARG_OF_PERICENTER":86.4605,"MEAN_ANOMALY":273.6538,"EPHEMERIS_TYPE":0,"CLASSIFICATION_TYPE":"U","NORAD_CAT_ID":52278,"ELEMENT_SET_NO":999,"REV_AT_EPOCH":21666,"BSTAR":-2.835533e-6,"MEAN_MOTION_DOT":-3.33e-6,"MEAN_MOTION_DDOT":0},{"OBJECT_NAME":"STARLINK-3764","OBJECT_ID":"2022-041V","EPOCH":"2026-03-24T21:24:24.731424","MEAN_MOTION":15.08829462,"ECCENTRICITY":0.00015476,"INCLINATION":53.2171,"RA_OF_ASC_NODE":40.8752,"ARG_OF_PERICENTER":90.2262,"MEAN_ANOMALY":269.8907,"EPHEMERIS_TYPE":0,"CLASSIFICATION_TYPE":"U","NORAD_CAT_ID":52280,"ELEMENT_SET_NO":999,"REV_AT_EPOCH":21666,"BSTAR":1.4367743e-5,"MEAN_MOTION_DOT":-5.9e-7,"MEAN_MOTION_DDOT":0},{"OBJECT_NAME":"STARLINK-3779","OBJECT_ID":"2022-041W","EPOCH":"2026-03-24T20:11:35.660544","MEAN_MOTION":15.08828964,"ECCENTRICITY":0.00012786,"INCLINATION":53.2185,"RA_OF_ASC_NODE":41.0989,"ARG_OF_PERICENTER":91.5489,"MEAN_ANOMALY":268.565,"EPHEMERIS_TYPE":0,"CLASSIFICATION_TYPE":"U","NORAD_CAT_ID":52281,"ELEMENT_SET_NO":999,"REV_AT_EPOCH":21665,"BSTAR":5.0652269e-5,"MEAN_MOTION_DOT":5.18e-6,"MEAN_MOTION_DDOT":0},{"OBJECT_NAME":"STARLINK-3783","OBJECT_ID":"2022-041X","EPOCH":"2026-03-24T13:18:12.013344","MEAN_MOTION":15.0882934,"ECCENTRICITY":0.00013999,"INCLINATION":53.2186,"RA_OF_ASC_NODE":32.3906,"ARG_OF_PERICENTER":89.0839,"MEAN_ANOMALY":271.0313,"EPHEMERIS_TYPE":0,"CLASSIFICATION_TYPE":"U","NORAD_CAT_ID":52282,"ELEMENT_SET_NO":999,"REV_AT_EPOCH":21674,"BSTAR":9.1367582e-5,"MEAN_MOTION_DOT":1.166e-5,"MEAN_MOTION_DDOT":0},{"OBJECT_NAME":"STARLINK-3789","OBJECT_ID":"2022-041Y","EPOCH":"2026-03-24T21:35:00.213792","MEAN_MOTION":15.08830223,"ECCENTRICITY":0.00013021,"INCLINATION":53.2165,"RA_OF_ASC_NODE":40.8394,"ARG_OF_PERICENTER":91.8843,"MEAN_ANOMALY":268.2298,"EPHEMERIS_TYPE":0,"CLASSIFICATION_TYPE":"U","NORAD_CAT_ID":52283,"ELEMENT_SET_NO":999,"REV_AT_EPOCH":21666,"BSTAR":2.9352203e-5,"MEAN_MOTION_DOT":1.79e-6,"MEAN_MOTION_DDOT":0},{"OBJECT_NAME":"STARLINK-3561","OBJECT_ID":"2022-041Z","EPOCH":"2026-03-24T21:04:32.052864","MEAN_MOTION":15.08832649,"ECCENTRICITY":0.00013974,"INCLINATION":53.2181,"RA_OF_ASC_NODE":30.9363,"ARG_OF_PERICENTER":89.3897,"MEAN_ANOMALY":270.7255,"EPHEMERIS_TYPE":0,"CLASSIFICATION_TYPE":"U","NORAD_CAT_ID":52284,"ELEMENT_SET_NO":999,"REV_AT_EPOCH":21679,"BSTAR":3.9294154e-5,"MEAN_MOTION_DOT":3.37e-6,"MEAN_MOTION_DDOT":0},{"OBJECT_NAME":"STARLINK-3802","OBJECT_ID":"2022-041AB","EPOCH":"2026-03-24T03:24:41.828256","MEAN_MOTION":15.08838445,"ECCENTRICITY":0.00016299,"INCLINATION":53.2177,"RA_OF_ASC_NODE":34.2415,"ARG_OF_PERICENTER":91.1078,"MEAN_ANOMALY":269.0101,"EPHEMERIS_TYPE":0,"CLASSIFICATION_TYPE":"U","NORAD_CAT_ID":52286,"ELEMENT_SET_NO":999,"REV_AT_EPOCH":21668,"BSTAR":-0.00015608834,"MEAN_MOTION_DOT":-2.771e-5,"MEAN_MOTION_DDOT":0},{"OBJECT_NAME":"STARLINK-3822","OBJECT_ID":"2022-041AC","EPOCH":"2026-03-24T21:19:04.349856","MEAN_MOTION":15.0885024,"ECCENTRICITY":9.182e-5,"INCLINATION":53.2204,"RA_OF_ASC_NODE":40.8905,"ARG_OF_PERICENTER":87.9771,"MEAN_ANOMALY":272.1326,"EPHEMERIS_TYPE":0,"CLASSIFICATION_TYPE":"U","NORAD_CAT_ID":52287,"ELEMENT_SET_NO":999,"REV_AT_EPOCH":21666,"BSTAR":0.00016177248,"MEAN_MOTION_DOT":2.288e-5,"MEAN_MOTION_DDOT":0},{"OBJECT_NAME":"STARLINK-3776","OBJECT_ID":"2022-041AD","EPOCH":"2026-03-24T03:19:23.715552","MEAN_MOTION":15.08829618,"ECCENTRICITY":0.00013843,"INCLINATION":53.2185,"RA_OF_ASC_NODE":34.2585,"ARG_OF_PERICENTER":86.1941,"MEAN_ANOMALY":273.9209,"EPHEMERIS_TYPE":0,"CLASSIFICATION_TYPE":"U","NORAD_CAT_ID":52288,"ELEMENT_SET_NO":999,"REV_AT_EPOCH":21668,"BSTAR":-6.7976678e-5,"MEAN_MOTION_DOT":-1.369e-5,"MEAN_MOTION_DDOT":0},{"OBJECT_NAME":"STARLINK-3751","OBJECT_ID":"2022-041AE","EPOCH":"2026-03-24T13:12:54.316224","MEAN_MOTION":15.08842259,"ECCENTRICITY":0.00014298,"INCLINATION":53.218,"RA_OF_ASC_NODE":32.4058,"ARG_OF_PERICENTER":97.831,"MEAN_ANOMALY":262.2845,"EPHEMERIS_TYPE":0,"CLASSIFICATION_TYPE":"U","NORAD_CAT_ID":52289,"ELEMENT_SET_NO":999,"REV_AT_EPOCH":21674,"BSTAR":0.00011768114,"MEAN_MOTION_DOT":1.586e-5,"MEAN_MOTION_DDOT":0},{"OBJECT_NAME":"STARLINK-3772","OBJECT_ID":"2022-041AF","EPOCH":"2026-03-24T20:34:06.375936","MEAN_MOTION":15.08836437,"ECCENTRICITY":0.00015446,"INCLINATION":53.2189,"RA_OF_ASC_NODE":31.0318,"ARG_OF_PERICENTER":80.4603,"MEAN_ANOMALY":279.6564,"EPHEMERIS_TYPE":0,"CLASSIFICATION_TYPE":"U","NORAD_CAT_ID":52290,"ELEMENT_SET_NO":999,"REV_AT_EPOCH":21679,"BSTAR":0.00012554826,"MEAN_MOTION_DOT":1.71e-5,"MEAN_MOTION_DDOT":0},{"OBJECT_NAME":"STARLINK-3753","OBJECT_ID":"2022-041AH","EPOCH":"2026-03-24T14:05:53.310912","MEAN_MOTION":15.08837839,"ECCENTRICITY":0.00014509,"INCLINATION":53.2188,"RA_OF_ASC_NODE":32.2408,"ARG_OF_PERICENTER":83.6643,"MEAN_ANOMALY":276.4515,"EPHEMERIS_TYPE":0,"CLASSIFICATION_TYPE":"U","NORAD_CAT_ID":52292,"ELEMENT_SET_NO":999,"REV_AT_EPOCH":21675,"BSTAR":8.1235654e-5,"MEAN_MOTION_DOT":1.005e-5,"MEAN_MOTION_DDOT":0},{"OBJECT_NAME":"STARLINK-3771","OBJECT_ID":"2022-041AJ","EPOCH":"2026-03-24T03:15:28.482912","MEAN_MOTION":15.08836437,"ECCENTRICITY":0.00014777,"INCLINATION":53.218,"RA_OF_ASC_NODE":34.2792,"ARG_OF_PERICENTER":88.2871,"MEAN_ANOMALY":271.8291,"EPHEMERIS_TYPE":0,"CLASSIFICATION_TYPE":"U","NORAD_CAT_ID":52293,"ELEMENT_SET_NO":999,"REV_AT_EPOCH":21668,"BSTAR":-0.00010072265,"MEAN_MOTION_DOT":-1.89e-5,"MEAN_MOTION_DDOT":0},{"OBJECT_NAME":"STARLINK-3777","OBJECT_ID":"2022-041AK","EPOCH":"2026-03-24T14:00:36.425088","MEAN_MOTION":15.08832328,"ECCENTRICITY":0.000125,"INCLINATION":53.2195,"RA_OF_ASC_NODE":32.2573,"ARG_OF_PERICENTER":84.6393,"MEAN_ANOMALY":275.4742,"EPHEMERIS_TYPE":0,"CLASSIFICATION_TYPE":"U","NORAD_CAT_ID":52294,"ELEMENT_SET_NO":999,"REV_AT_EPOCH":21675,"BSTAR":-9.6726186e-5,"MEAN_MOTION_DOT":-1.827e-5,"MEAN_MOTION_DDOT":0},{"OBJECT_NAME":"STARLINK-3765","OBJECT_ID":"2022-041AL","EPOCH":"2026-03-24T20:38:02.145120","MEAN_MOTION":15.08857298,"ECCENTRICITY":0.00017645,"INCLINATION":53.2206,"RA_OF_ASC_NODE":31.0165,"ARG_OF_PERICENTER":105.0054,"MEAN_ANOMALY":255.1133,"EPHEMERIS_TYPE":0,"CLASSIFICATION_TYPE":"U","NORAD_CAT_ID":52295,"ELEMENT_SET_NO":999,"REV_AT_EPOCH":21679,"BSTAR":-0.00026558161,"MEAN_MOTION_DOT":-4.514e-5,"MEAN_MOTION_DDOT":0},{"OBJECT_NAME":"STARLINK-3766","OBJECT_ID":"2022-041AM","EPOCH":"2026-03-24T20:06:13.411008","MEAN_MOTION":15.08844594,"ECCENTRICITY":0.00014384,"INCLINATION":53.22,"RA_OF_ASC_NODE":31.1182,"ARG_OF_PERICENTER":97.6606,"MEAN_ANOMALY":262.4549,"EPHEMERIS_TYPE":0,"CLASSIFICATION_TYPE":"U","NORAD_CAT_ID":52296,"ELEMENT_SET_NO":999,"REV_AT_EPOCH":21679,"BSTAR":0.00019132316,"MEAN_MOTION_DOT":2.759e-5,"MEAN_MOTION_DDOT":0}]
