STARLINK-3780           
1 52278U 22041T   26083.90298834 -.00000333  00000+0 -28355-5 0  9993
2 52278  53.2180  40.8241 0001318  86.4605 273.6538 15.08834393216665
STARLINK-3764           
1 52280U 22041V   26083.89195291 -.00000059  00000+0  14368-4 0  9999
2 52280  53.2171  40.8752 0001547  90.2262 269.8907 15.08829462216669
STARLINK-3779           
1 52281U 22041W   26083.84138496  .00000518  00000+0  50652-4 0  9994
2 52281  53.2185  41.0989 0001278  91.5489 268.5650 15.08828964216652
STARLINK-3783           
1 52282U 22041X   26083.55430571  .00001166  00000+0  91368-4 0  9991
2 52282  53.2186  32.3906 0001399  89.0839 271.0313 15.08829340216745
STARLINK-3789           
1 52283U 22041Y   26083.89930803  .00000179  00000+0  29352-4 0  9999
2 52283  53.2165  40.8394 0001302  91.8843 268.2298 15.08830223216661
STARLINK-3561           
1 52284U 22041Z   26083.87814876  .00000337  00000+0  39294-4 0  9991
2 52284  53.2181  30.9363 0001397  89.3897 270.7255 15.08832649216790
STARLINK-3802           
1 52286U 22041AB  26083.14215079 -.00002771  00000+0 -15609-3 0  9992
2 52286  53.2177  34.2415 0001629  91.1078 269.0101 15.08838445216681
STARLINK-3822           
1 52287U 22041AC  26083.88824479  .00002288  00000+0  16177-3 0  9996
2 52287  53.2204  40.8905 0000918  87.9771 272.1326 15.08850240216662
STARLINK-3776           
1 52288U 22041AD  26083.13846893 -.00001369  00000+0 -67977-4 0  9995
2 52288  53.2185  34.2585 0001384  86.1941 273.9209 15.08829618216686
STARLINK-3751           
1 52289U 22041AE  26083.55062866  .00001586  00000+0  11768-3 0  9997
2 52289  53.2180  32.4058 0001429  97.8310 262.2845 15.08842259216746
STARLINK-3772           
1 52290U 22041AF  26083.85701824  .00001710  00000+0  12555-3 0  9990
2 52290  53.2189  31.0318 0001544  80.4603 279.6564 15.08836437216798
STARLINK-3753           
1 52292U 22041AH  26083.58742258  .00001005  00000+0  81236-4 0  9998
2 52292  53.2188  32.2408 0001450  83.6643 276.4515 15.08837839216751
STARLINK-3771           
1 52293U 22041AJ  26083.13574633 -.00001890  00000+0 -10072-3 0  9993
2 52293  53.2180  34.2792 0001477  88.2871 271.8291 15.08836437216680
STARLINK-3777           
1 52294U 22041AK  26083.58375492 -.00001827  00000+0 -96726-4 0  9996
2 52294  53.2195  32.2573 0001250  84.6393 275.4742 15.08832328216754
STARLINK-3765           
1 52295U 22041AL  26083.85974705 -.00004514  00000+0 -26558-3 0  9990
2 52295  53.2206  31.0165 0001764 105.0054 255.1133 15.08857298216790
STARLINK-3766           
1 52296U 22041AM  26083.83765522  .00002759  00000+0  19132-3 0  9991
2 52296  53.2200  31.1182 0001438  97.6606 262.4549 15.08844594216799
